NORAD_CAT_ID,OBJECT_NAME,OBJECT_TYPE,EPOCH,MEAN_MOTION,ECCENTRICITY,INCLINATION,RA_OF_ASC_NODE,ARG_OF_PERICENTER,MEAN_ANOMALY,BSTAR,MEAN_MOTION_DOT,MEAN_MOTION_DDOT,TLE_LINE0,TLE_LINE1,TLE_LINE2,SEMIMAJOR_AXIS,PERIOD,APOGEE,PERIGEE,DECAYED
49151.0,STARLINK-3102,PAYLOAD,2024-04-27 21:23:15,14.98326805,0.0002945,70.0004,170.9852,268.7526,91.3296,-5.9874e-05,-8.07e-06,0.0,0 STARLINK-3102,1 49151U 21082X   24118.89115342 -.00000807  00000-0 -59874-4 0  9996,2 49151  70.0004 170.9852 0002945 268.7526  91.3296 14.98326805146187,6950.203,96.107,574.115,570.021,0.0
49151.0,STARLINK-3102,PAYLOAD,2024-04-28 03:47:48,14.98325522,0.000299,70.0003,170.3121,270.1487,89.9329,-0.00011443,-1.458e-05,0.0,0 STARLINK-3102,1 49151U 21082X   24119.15819665 -.00001458  00000-0 -11443-3 0  9997,2 49151  70.0003 170.3121 0002990 270.1487  89.9329 14.98325522146233,6950.207,96.107,574.15,569.994,0.0
49151.0,STARLINK-3102,PAYLOAD,2024-04-28 13:24:36,14.9832607,0.0003011,70.0001,169.3027,270.1535,89.9279,-9.2264e-05,-1.194e-05,0.0,0 STARLINK-3102,1 49151U 21082X   24119.55875635 -.00001194  00000-0 -92264-4 0  9998,2 49151  70.0001 169.3027 0003011 270.1535  89.9279 14.98326070146281,6950.205,96.107,574.163,569.977,0.0
49151.0,STARLINK-3102,PAYLOAD,2024-04-29 03:49:48,14.98329584,0.000305,69.9996,167.7882,268.8692,91.2118,6.7077e-05,7.07e-06,0.0,0 STARLINK-3102,1 49151U 21082X   24120.15959060  .00000707  00000-0  67077-4 0  9992,2 49151  69.9996 167.7882 0003050 268.8692  91.2118 14.98329584146385,6950.194,96.107,574.179,569.939,0.0
49151.0,STARLINK-3102,PAYLOAD,2024-04-29 13:26:38,14.98308095,0.0002889,70.0,166.7779,272.5595,87.5233,-0.00020784,-2.571e-05,0.0,0 STARLINK-3102,1 49151U 21082X   24120.56017159 -.00002571  00000-0 -20784-3 0  9997,2 49151  70.0000 166.7779 0002889 272.5595  87.5233 14.98308095146437,6950.261,96.108,574.134,570.118,0.0
49151.0,STARLINK-3102,PAYLOAD,2024-04-29 19:51:11,14.98303603,0.0002823,69.9999,166.1059,268.1324,91.9512,-0.00027009,-3.312e-05,0.0,0 STARLINK-3102,1 49151U 21082X   24120.82721978 -.00003312  00000-0 -27009-3 0  9998,2 49151  69.9999 166.1059 0002823 268.1324  91.9512 14.98303603146489,6950.275,96.109,574.102,570.177,0.0
49151.0,STARLINK-3102,PAYLOAD,2024-04-30 03:51:52,14.98311444,0.0002768,69.9992,165.2604,277.4006,82.6839,-0.00023172,-2.855e-05,0.0,0 STARLINK-3102,1 49151U 21082X   24121.16101943 -.00002855  00000-0 -23172-3 0  9998,2 49151  69.9992 165.2604 0002768 277.4006  82.6839 14.98311444146533,6950.25,96.108,574.039,570.191,0.0
49151.0,STARLINK-3102,PAYLOAD,2024-04-30 11:52:31,14.98316989,0.000238,70.0005,164.4176,279.6239,80.4651,0.00012179,1.36e-05,0.0,0 STARLINK-3102,1 49151U 21082X   24121.49480996  .00001360  00000-0  12179-3 0  9995,2 49151  70.0005 164.4176 0002380 279.6239  80.4651 14.98316989146580,6950.233,96.108,573.752,570.444,0.0
49151.0,STARLINK-3102,PAYLOAD,2024-04-30 19:53:10,14.98339799,0.0002905,70.0005,163.578,275.7269,84.3559,-5.8442e-05,-7.9e-06,0.0,0 STARLINK-3102,1 49151U 21082X   24121.82859948 -.00000790  00000-0 -58442-4 0  9991,2 49151  70.0005 163.5780 0002905 275.7269  84.3559 14.98339799146623,6950.163,96.106,574.047,570.009,0.0
49151.0,STARLINK-3102,PAYLOAD,2024-05-01 03:53:51,14.98335611,0.0003319,69.9988,162.7385,269.7747,90.3032,6.3848e-05,6.69e-06,0.0,0 STARLINK-3102,1 49151U 21082X   24122.16239846  .00000669  00000-0  63848-4 0  9997,2 49151  69.9988 162.7385 0003319 269.7747  90.3032 14.98335611146684,6950.176,96.107,574.347,569.734,0.0
49151.0,STARLINK-3102,PAYLOAD,2024-05-01 08:42:15,14.98337989,0.000338,69.9987,162.2337,270.2206,89.8566,9.8604e-05,1.084e-05,0.0,0 STARLINK-3102,1 49151U 21082X   24122.36267535  .00001084  00000-0  98604-4 0  9995,2 49151  69.9987 162.2337 0003380 270.2206  89.8566 14.98337989146708,6950.168,96.106,574.382,569.684,0.0
49151.0,STARLINK-3102,PAYLOAD,2024-05-01 19:55:11,14.98328254,0.0003072,69.9991,161.0552,271.4349,88.6458,0.0003402,3.968e-05,0.0,0 STARLINK-3102,1 49151U 21082X   24122.82999407  .00003968  00000-0  34020-3 0  9990,2 49151  69.9991 161.0552 0003072 271.4349  88.6458 14.98328254146777,6950.198,96.107,574.198,569.928,0.0
49151.0,STARLINK-3102,PAYLOAD,2024-05-02 03:55:52,14.98307672,0.0002959,69.9989,160.2135,268.5577,91.5243,0.00069314,8.182e-05,0.0,0 STARLINK-3102,1 49151U 21082X   24123.16379937  .00008182  00000-0  69314-3 0  9995,2 49151  69.9989 160.2135 0002959 268.5577  91.5243 14.98307672146838,6950.262,96.108,574.184,570.07,0.0
49151.0,STARLINK-3102,PAYLOAD,2024-05-02 11:56:31,14.98344152,0.0003194,69.9989,159.3718,270.039,90.0403,0.00011217,1.246e-05,0.0,0 STARLINK-3102,1 49151U 21082X   24123.49758782  .00001246  00000-0  11217-3 0  9993,2 49151  69.9989 159.3718 0003194 270.0390  90.0403 14.98344152146888,6950.149,96.106,574.234,569.794,0.0
49151.0,STARLINK-3102,PAYLOAD,2024-05-03 11:58:32,14.98344474,0.0003201,69.9987,156.8472,271.2786,88.8006,-1.3926e-05,-2.59e-06,0.0,0 STARLINK-3102,1 49151U 21082X   24124.49898193 -.00000259  00000-0 -13926-4 0  9990,2 49151  69.9987 156.8472 0003201 271.2786  88.8006 14.98344474147035,6950.148,96.106,574.238,569.788,0.0
49151.0,STARLINK-3102,PAYLOAD,2024-05-03 19:59:12,14.98334526,0.000316,69.9989,156.0051,271.4745,88.6052,-0.00010654,-1.364e-05,0.0,0 STARLINK-3102,1 49151U 21082X   24124.83278825 -.00001364  00000-0 -10654-3 0  9994,2 49151  69.9989 156.0051 0003160 271.4745  88.6052 14.98334526147084,6950.179,96.107,574.24,569.848,0.0
49151.0,STARLINK-3102,PAYLOAD,2024-05-04 03:59:53,14.98327504,0.0003122,69.9991,155.1638,271.1238,88.9564,-0.00017137,-2.137e-05,0.0,0 STARLINK-3102,1 49151U 21082X   24125.16659409 -.00002137  00000-0 -17137-3 0  9994,2 49151  69.9991 155.1638 0003122 271.1238  88.9564 14.98327504147135,6950.201,96.107,574.235,569.896,0.0
49151.0,STARLINK-3102,PAYLOAD,2024-05-05 04:01:54,14.98327482,0.0003073,69.9989,152.6389,272.0492,88.0316,-8.1141e-05,-1.061e-05,0.0,0 STARLINK-3102,1 49151U 21082X   24126.16799306 -.00001061  00000-0 -81141-4 0  9998,2 49151  69.9989 152.6389 0003073 272.0492  88.0316 14.98327482147281,6950.201,96.107,574.201,569.93,0.0
49151.0,STARLINK-3102,PAYLOAD,2024-05-05 12:02:35,14.98326469,0.0003054,69.9989,151.7974,271.8711,88.2098,-7.1557e-05,-9.47e-06,0.0,0 STARLINK-3102,1 49151U 21082X   24126.50179439 -.00000947  00000-0 -71557-4 0  9997,2 49151  69.9989 151.7974 0003054 271.8711  88.2098 14.98326469147329,6950.204,96.107,574.191,569.946,0.0
49151.0,STARLINK-3102,PAYLOAD,2024-05-05 18:27:07,14.98325955,0.0003019,69.999,151.1242,272.3555,87.7258,-1.801e-05,-3.08e-06,0.0,0 STARLINK-3102,1 49151U 21082X   24126.76883430 -.00000308  00000-0 -18010-4 0  9994,2 49151  69.9990 151.1242 0003019 272.3555  87.7258 14.98325955147361,6950.205,96.107,574.169,569.972,0.0
49151.0,STARLINK-3102,PAYLOAD,2024-05-06 04:03:55,14.98322818,0.0003157,69.9985,150.1141,271.0109,89.0688,0.00010869,1.204e-05,0.0,0 STARLINK-3102,1 49151U 21082X   24127.16939403  .00001204  00000-0  10869-3 0  9998,2 49151  69.9985 150.1141 0003157 271.0109  89.0688 14.98322818147431,6950.215,96.107,574.274,569.886,0.0
49151.0,STARLINK-3102,PAYLOAD,2024-05-06 10:28:27,14.98324701,0.0003166,69.9985,149.4406,271.7638,88.3159,0.00010395,1.147e-05,0.0,0 STARLINK-3102,1 49151U 21082X   24127.43643423  .00001147  00000-0  10395-3 0  9992,2 49151  69.9985 149.4406 0003166 271.7638  88.3159 14.98324701147461,6950.209,96.107,574.275,569.874,0.0
49151.0,STARLINK-3102,PAYLOAD,2024-05-06 18:29:08,14.98327809,0.0003172,69.9985,148.599,271.3853,88.6943,0.00011193,1.243e-05,0.0,0 STARLINK-3102,1 49151U 21082X   24127.77023306  .00001243  00000-0  11193-3 0  9995,2 49151  69.9985 148.5990 0003172 271.3853  88.6943 14.98327809147513,6950.2,96.107,574.269,569.86,0.0
49151.0,STARLINK-3102,PAYLOAD,2024-05-07 04:05:56,14.98331575,0.0003197,69.9985,147.589,270.3481,89.7312,0.00010576,1.169e-05,0.0,0 STARLINK-3102,1 49151U 21082X   24128.17079103  .00001169  00000-0  10576-3 0  9997,2 49151  69.9985 147.5890 0003197 270.3481  89.7312 14.98331575147588,6950.188,96.107,574.275,569.831,0.0
49151.0,STARLINK-3102,PAYLOAD,2024-05-07 10:30:28,14.98333184,0.000319,69.9985,146.9157,270.4462,89.6332,0.0001164,1.296e-05,0.0,0 STARLINK-3102,1 49151U 21082X   24128.43782947  .00001296  00000-0  11640-3 0  9997,2 49151  69.9985 146.9157 0003190 270.4462  89.6332 14.98333184147613,6950.183,96.107,574.265,569.831,0.0
49151.0,STARLINK-3102,PAYLOAD,2024-05-08 04:07:56,14.98338418,0.0003193,69.9985,145.0642,270.2183,89.861,0.0001146,1.275e-05,0.0,0 STARLINK-3102,1 49151U 21082X   24129.17218339  .00001275  00000-0  11460-3 0  9995,2 49151  69.9985 145.0642 0003193 270.2183  89.8610 14.98338418147732,6950.167,96.106,574.251,569.813,0.0
49151.0,STARLINK-3102,PAYLOAD,2024-05-08 10:32:28,14.98341152,0.0003228,69.9985,144.3909,270.7059,89.373,0.00010934,1.212e-05,0.0,0 STARLINK-3102,1 49151U 21082X   24129.43922017  .00001212  00000-0  10934-3 0  9995,2 49151  69.9985 144.3909 0003228 270.7059  89.3730 14.98341152147766,6950.158,96.106,574.267,569.78,0.0
49151.0,STARLINK-3102,PAYLOAD,2024-05-08 18:33:09,14.98336131,0.0003174,69.9986,143.5494,270.4143,89.6652,3.4299e-05,3.16e-06,0.0,0 STARLINK-3102,1 49151U 21082X   24129.77302350  .00000316  00000-0  34299-4 0  9999,2 49151  69.9986 143.5494 0003174 270.4143  89.6652 14.98336131147811,6950.174,96.107,574.245,569.833,0.0
49151.0,STARLINK-3102,PAYLOAD,2024-05-09 04:09:57,14.98334519,0.0003123,69.9987,142.5395,269.7718,90.3083,-2.7341e-05,-4.19e-06,0.0,0 STARLINK-3102,1 49151U 21082X   24130.17358472 -.00000419  00000-0 -27341-4 0  9997,2 49151  69.9987 142.5395 0003123 269.7718  90.3083 14.98334519147886,6950.179,96.107,574.214,569.873,0.0
49151.0,STARLINK-3102,PAYLOAD,2024-05-09 10:34:29,14.98333271,0.0003131,69.9988,141.8658,268.7843,91.2957,-3.387e-05,-4.97e-06,0.0,0 STARLINK-3102,1 49151U 21082X   24130.44062463 -.00000497  00000-0 -33870-4 0  9999,2 49151  69.9988 141.8658 0003131 268.7843  91.2957 14.98333271147916,6950.183,96.107,574.224,569.872,0.0
